[{"OBJECT_NAME":"STARLINK-4359","OBJECT_ID":"2022-084AP","EPOCH":"2026-03-09T17:22:04.534176","MEAN_MOTION":15.01269126,"ECCENTRICITY":0.0001273,"INCLINATION":97.605,"RA_OF_ASC_NODE":130.2516,"ARG_OF_PERICENTER":174.5662,"MEAN_ANOMALY":185.5577,"EPHEMERIS_TYPE":0,"CLASSIFICATION_TYPE":"U","NORAD_CAT_ID":53226,"ELEMENT_SET_NO":999,"REV_AT_EPOCH":19932,"BSTAR":-5.2865119e-5,"MEAN_MOTION_DOT":-7.37e-6,"MEAN_MOTION_DDOT":0},{"OBJECT_NAME":"COSMOS 374 DEB","OBJECT_ID":"1970-089S","EPOCH":"2026-03-09T06:34:35.690880","MEAN_MOTION":13.3804244,"ECCENTRICITY":0.08148806,"INCLINATION":63.1132,"RA_OF_ASC_NODE":108.3493,"ARG_OF_PERICENTER":73.2599,"MEAN_ANOMALY":295.6167,"EPHEMERIS_TYPE":0,"CLASSIFICATION_TYPE":"U","NORAD_CAT_ID":4711,"ELEMENT_SET_NO":999,"REV_AT_EPOCH":64140,"BSTAR":0.00048214428,"MEAN_MOTION_DOT":1.807e-5,"MEAN_MOTION_DDOT":0}]
